STARLINK-5225           
1 54063U 22136N   23323.82961850 -.00007080  00000+0 -42686-3 0  9999
2 54063  53.2174 158.8190 0001474 100.9715 259.1443 15.08865153 59906
STARLINK-5172           
1 54064U 22136P   23323.71419623  .00000661  00000+0  59604-4 0  9999
2 54064  53.2153 114.5822 0001330  92.4464 267.6680 15.08840787 60514
STARLINK-5187           
1 54065U 22136Q   23324.02097692  .00000940  00000+0  77137-4 0  9994
2 54065  53.2166 157.8828 0001514  89.7530 270.3635 15.08843740 60414
STARLINK-5151           
1 54066U 22136R   23324.02465960  .00001267  00000+0  97676-4 0  9995
2 54066  53.2162 157.9045 0001418  89.7717 270.3437 15.08845811 60414
STARLINK-5174           
1 54067U 22136S   23323.81486213 -.00029087  00000+0 -18102-2 0  9993
2 54067  53.2184 158.7268 0000514 114.5159 245.5887 15.08975849 59908
STARLINK-5222           
1 54068U 22136T   23323.81857270  .00000899  00000+0  74578-4 0  9998
2 54068  53.2160 158.7522 0001299  92.9389 267.1752 15.08844695 59906
STARLINK-5223           
1 54069U 22136U   23323.87007664  .00001629  00000+0  12039-3 0  9994
2 54069  53.2168 158.3627 0001338  91.0807 269.0339 15.08841859 59918
STARLINK-5181           
1 54070U 22136V   23323.87376078  .00001117  00000+0  88277-4 0  9994
2 54070  53.2162 158.3849 0001516  85.8741 274.2424 15.08842043 59915
STARLINK-5168           
1 54071U 22136W   23323.82321314  .00001360  00000+0  10351-3 0  9990
2 54071  53.2168 158.7751 0001395  88.9328 271.1824 15.08845788 59906
STARLINK-5144           
1 54072U 22136X   23323.94370260  .00000454  00000+0  46613-4 0  9992
2 54072  53.2170 158.1130 0001325  91.6502 268.4642 15.08832373 60403
STARLINK-5146           
1 54073U 22136Y   23323.80245545  .00001243  00000+0  96151-4 0  9994
2 54073  53.2145 153.6681 0001263  87.0545 273.0591 15.08841308 59977
STARLINK-5192           
1 54074U 22136Z   23323.86639119  .00001221  00000+0  94818-4 0  9999
2 54074  53.2161 158.3384 0001424  90.7074 269.4081 15.08840851 59914
STARLINK-5212           
1 54075U 22136AA  23323.79876826  .00001551  00000+0  11551-3 0  9998
2 54075  53.2161 153.6436 0001412  90.0409 270.0745 15.08848983 60453
STARLINK-5201           
1 54076U 22136AB  23323.92894861  .00001087  00000+0  86386-4 0  9996
2 54076  53.2167 158.0189 0001474  91.4781 268.6380 15.08838969 59921
STARLINK-5171           
1 54077U 22136AC  23323.86825497  .00000915  00000+0  75608-4 0  9993
2 54077  53.2147 138.3936 0001369  99.5535 260.5612 15.08832593 60197
STARLINK-5138           
1 54078U 22136AD  23323.89402880  .00001139  00000+0  89611-4 0  9992
2 54078  53.2154 138.5499 0001417  91.1404 268.9750 15.08845026 60199
STARLINK-5175           
1 54079U 22136AE  23323.79010257  .00000751  00000+0  65274-4 0  9993
2 54079  53.2155 149.2898 0001324  90.9909 269.1234 15.08843951 60035
STARLINK-5160           
1 54080U 22136AF  23323.91659836  .00001057  00000+0  84480-4 0  9991
2 54080  53.2158 153.6618 0001363  88.8768 271.2380 15.08841134 59980
STARLINK-5165           
1 54081U 22136AG  23323.91985614  .00001714  00000+0  12575-3 0  9993
2 54081  53.2156 148.6767 0001313  89.1007 271.0135 15.08844758 60537
STARLINK-5210           
1 54082U 22136AH  23323.91889562  .00001681  00000+0  12365-3 0  9999
2 54082  53.2156 148.6709 0001376  90.2464 269.8686 15.08846132 60537
STARLINK-5178           
1 54083U 22136AJ  23323.90784422  .00001033  00000+0  82995-4 0  9996
2 54083  53.2164 148.6026 0001371  85.7585 274.3564 15.08842206 60058
STARLINK-5183           
1 54084U 22136AK  23323.78273107  .00000820  00000+0  69581-4 0  9995
2 54084  53.2148 149.2413 0001187  91.7989 268.3139 15.08845613 60032
STARLINK-5166           
1 54085U 22136AL  23323.77168498  .00000655  00000+0  59273-4 0  9994
2 54085  53.2172 149.1739 0001554  83.6585 276.4585 15.08838531 60036
STARLINK-5211           
1 54086U 22136AM  23323.90738421  .00000739  00000+0  64538-4 0  9992
2 54086  53.2161 133.6419 0001390  88.6745 271.4406 15.08844011 60261
STARLINK-5184           
1 54087U 22136AN  23324.02654403  .00000933  00000+0  76719-4 0  9994
2 54087  53.2166 147.9235 0001482  88.5149 271.6013 15.08840076 60544
STARLINK-5153           
1 54088U 22136AP  23323.91152782  .00001973  00000+0  14198-3 0  9992
2 54088  53.2163 148.6256 0001425  87.9738 272.1417 15.08844672 60053
STARLINK-5143           
1 54089U 22136AQ  23323.88942440  .00000614  00000+0  56668-4 0  9997
2 54089  53.2157 148.4895 0001387  90.4239 269.6912 15.08836116 60051
STARLINK-5177           
1 54090U 22136AR  23323.95934808  .00000837  00000+0  70664-4 0  9995
2 54090  53.2158 148.2140 0001346  92.1105 268.0042 15.08838693 60533
STARLINK-5221           
1 54091U 22136AS  23323.79738877  .00000780  00000+0  67104-4 0  9998
2 54091  53.2161 148.6307 0001318  91.5581 268.5562 15.08842199 60041
STARLINK-5190           
1 54092U 22136AT  23323.81692565  .00005153  00000+0  32935-3 0  9997
2 54092  53.2158 148.7479 0001141 152.8948 207.2104 15.10199415 60042
STARLINK-5213           
1 54093U 22136AU  23323.81212383  .00000615  00000+0  56747-4 0  9990
2 54093  53.2158 148.7197 0001398  85.9760 274.1392 15.08842135 60045
STARLINK-5219           
1 54094U 22136AV  23323.81949758  .00000467  00000+0  47408-4 0  9993
2 54094  53.2170 148.7649 0001437  91.3079 268.8078 15.08838280 60047
STARLINK-5193           
1 54095U 22136AW  23323.80475717  .00002575  00000+0  17973-3 0  9997
2 54095  53.2165 148.6726 0001372  86.5982 273.5167 15.08857630 60046
STARLINK-5188           
1 54096U 22136AX  23323.74957235  .00000556  00000+0  52999-4 0  9996
2 54096  53.2170 149.0398 0001458  90.0393 270.0766 15.08838847 60039
STARLINK-5197           
1 54097U 22136AY  23323.88988908  .00000585  00000+0  54835-4 0  9996
2 54097  53.2172 123.5466 0001367  89.2054 270.9095 15.08837936 60401
STARLINK-5217           
1 54098U 22136AZ  23323.93354712  .00001047  00000+0  83841-4 0  9996
2 54098  53.2166 148.0564 0001394  87.2844 272.8308 15.08843949 60062
STARLINK-5198           
1 54099U 22136BA  23323.92617958  .00000989  00000+0  80228-4 0  9990
2 54099  53.2162 148.0073 0001390  88.2950 271.8201 15.08843345 60060
STARLINK-5185           
1 54100U 22136BB  23323.87467954  .00000349  00000+0  39991-4 0  9997
2 54100  53.2167 148.4003 0001419  86.1279 273.9875 15.08842438 60059
STARLINK-5204           
1 54101U 22136BC  23323.87518224  .00000455  00000+0  46662-4 0  9996
2 54101  53.2162 133.4421 0001111  90.3036 269.8084 15.08841680 60267
STARLINK-5179           
1 54102U 22136BD  23323.91667824  .00033321  00000+0  21031-2 0  9992
2 54102  53.2157 148.7573 0001256  80.6537 222.1450 15.08818122  5822
STARLINK-5200           
1 54103U 22136BE  23323.87652804  .00000672  00000+0  60283-4 0  9997
2 54103  53.2167 128.4618 0001372  92.1042 268.0108 15.08841023 60339
STARLINK-5203           
1 54104U 22136BF  23323.75191754  .00001017  00000+0  81959-4 0  9994
2 54104  53.2169 114.1088 0001756  92.6120 267.5073 15.08859226 60523
STARLINK-5290           
1 54157U 22141A   23323.88576453  .00003781  00000+0  25550-3 0  9999
2 54157  53.2148 188.6927 0002015  88.2687 271.8536 15.08844655 58781
STARLINK-5297           
1 54158U 22141B   23323.89313193  .00001821  00000+0  13247-3 0  9994
2 54158  53.2168 188.7391 0001553  85.4960 274.6209 15.08845958 58784
STARLINK-5294           
1 54159U 22141C   23323.88945356  .00001887  00000+0  13660-3 0  9997
2 54159  53.2162 188.7234 0001455  88.9906 271.1253 15.08842401 58785
STARLINK-5233           
1 54160U 22141D   23323.80339044  .00002787  00000+0  19297-3 0  9994
2 54160  53.2190 143.9742 0001193  89.6052 270.5077 15.08868583 59400
STARLINK-5269           
1 54161U 22141E   23323.89040796  .00000988  00000+0  80145-4 0  9999
2 54161  53.2169 188.7212 0001388  88.0663 272.0488 15.08842532 58782
STARLINK-5273           
1 54162U 22141F   23323.88208354  .00001139  00000+0  89644-4 0  9997
2 54162  53.2165 188.6692 0001524  84.2619 275.8547 15.08836975 58782
STARLINK-5161           
1 54163U 22141G   23323.89405734 -.00000475  00000+0 -11753-4 0  9990
2 54163  53.2159 178.7688 0001344  91.8896 268.2250 15.08847512 58924
STARLINK-5278           
1 54164U 22141H   23323.89774200  .00000939  00000+0  77110-4 0  9990
2 54164  53.2165 178.7917 0001480  92.1100 268.0061 15.08839726 58926
STARLINK-5279           
1 54165U 22141J   23323.87839559  .00001344  00000+0  10249-3 0  9998
2 54165  53.2144 188.6463 0001428  83.3078 276.8076 15.08842947 58784
STARLINK-5280           
1 54166U 22141K   23323.89037624  .00004701  00000+0  31342-3 0  9991
2 54166  53.2165 178.7451 0001703  85.8857 274.2330 15.08822537 58927
STARLINK-5243           
1 54167U 22141L   23323.92621054  .00001606  00000+0  11896-3 0  9995
2 54167  53.2150 188.2338 0001469  89.1143 271.0018 15.08835896 58791
STARLINK-5245           
1 54168U 22141M   23323.88668960  .00000192  00000+0  30162-4 0  9995
2 54168  53.2157 178.7222 0001367  99.2161 260.8986 15.08851956 58924
STARLINK-5282           
1 54169U 22141N   23323.90134178  .00001323  00000+0  10117-3 0  9992
2 54169  53.2165 178.1138 0001335  86.6715 273.4430 15.08840112 58931
STARLINK-5155           
1 54170U 22141P   23323.88299977  .00000912  00000+0  75388-4 0  9995
2 54170  53.2168 178.7005 0001543  94.6338 265.4831 15.08843309 58922
STARLINK-5229           
1 54171U 22141Q   23323.93221138  .00004200  00000+0  28186-3 0  9993
2 54171  53.2170 183.2787 0001205  87.0589 273.0541 15.08831535 58867
STARLINK-5117           
1 54172U 22141R   23323.87562270 -.00002737  00000+0 -15397-3 0  9997
2 54172  53.2165 178.6551 0001355 101.9030 258.2114 15.08839120 58928
STARLINK-5242           
1 54173U 22141S   23323.97126857  .00001729  00000+0  12670-3 0  9995
2 54173  53.2160 177.8329 0001418  88.0177 272.0977 15.08840150 58943
